[{"OBJECT_NAME":"STARLINK-1558","OBJECT_ID":"2020-055J","EPOCH":"2026-03-10T00:00:02.999808","MEAN_MOTION":15.18443395,"ECCENTRICITY":0.00017689,"INCLINATION":53.106,"RA_OF_ASC_NODE":124.8912,"ARG_OF_PERICENTER":74.7378,"MEAN_ANOMALY":41.5641,"EPHEMERIS_TYPE":0,"CLASSIFICATION_TYPE":"U","NORAD_CAT_ID":46035,"ELEMENT_SET_NO":999,"REV_AT_EPOCH":574,"BSTAR":0.053079535,"MEAN_MOTION_DOT":0.01207475,"MEAN_MOTION_DDOT":0},{"OBJECT_NAME":"YAOGAN-35 04C","OBJECT_ID":"2022-100E","EPOCH":"2026-03-09T22:54:54.133344","MEAN_MOTION":15.20344073,"ECCENTRICITY":0.00105729,"INCLINATION":34.9966,"RA_OF_ASC_NODE":338.2554,"ARG_OF_PERICENTER":249.1689,"MEAN_ANOMALY":110.7893,"EPHEMERIS_TYPE":0,"CLASSIFICATION_TYPE":"U","NORAD_CAT_ID":53526,"ELEMENT_SET_NO":999,"REV_AT_EPOCH":19784,"BSTAR":0.00040733017,"MEAN_MOTION_DOT":9.062e-5,"MEAN_MOTION_DDOT":0}]
